#dP2022  2 17  0  0  0.00000000      96 __u+U ITR00 EXT  IAC
## 2197 345600.00000000   900.00000000 59627 0.0000000000000
+  117   C06C07C08C09C10C11C12C13C14C16C19C20C21C22C23C24C25
+        C26C27C28C29C30C32C33C34C35C36C37C38C39C40C41C42C43
+        C44C45C46E01E02E03E04E05E07E08E09E10E11E12E13E14E15
+        E18E21E24E25E26E27E30E31E33E34E36G01G02G03G04G05G06
+        G07G08G09G10G11G12G13G14G15G16G17G18G19G20G21G22G23
+        G24G25G26G27G28G29G30G31G32J01J02J03R01R02R03R04R05
+        R07R08R09R11R12R13R14R15R17R18R19R20R21R22R24  0  0
++        10 10  9  9  9  8  9  9  8  9  8  8  9  6  7  9  7
++         8  7  8  9  9  8  8 10  9  9  7  8  9 10  8 10  8
++         9  6  8  8  7  7  8  7  8  6  7  7  7  8  8  8  7
++         7  8  7  8  9  6  9  8  9  7  8  8  7  7  8  8  7
++         8  7  9  9  7  7  8 14  8  7  6  6  7  7  8  9  8
++         7  6  6  7  7  8  9  7  9  9  9 10  8  7  9  8  8
++        10  8  7  8  8 10  9  8  8  8  9  7  9  9 10  0  0
%c M  cc GPS ccc cccc cccc cccc cccc ccccc ccccc ccccc ccccc
%c cc cc ccc ccc cccc cccc cccc cccc ccccc ccccc ccccc ccccc
%f  0.0000000  0.000000000  0.00000000000  0.000000000000000
%f  0.0000000  0.000000000  0.00000000000  0.000000000000000
%i    0    0    0    0      0      0      0      0         0
%i    0    0    0    0      0      0      0      0         0
/* IAC                                ULTRA-RAPID PREDICTION
/* S/V CLOCKS ARE ALIGNED TO GNSS TIME                      
/* G:C1WC2W R:C1PC2P E:C1XC5X C:C2IC6I J:C1CC2S             
/* PCV:IGS14_2196 OL/AL:FES2004  NONE     YN ORB:CoN CLK:CoN
*  2022 02 17 11  0  0.00000000
PC06  -2457.888370  28773.205508 -30654.929014     65.884712
PC07 -17031.856053  29040.534266  25300.218398    -64.197435
PC08 -11288.079991  40586.225972   3111.709693    140.431892
PC09   6431.251802  33084.578447 -24720.769583   -530.617978
PC10  -8643.781688  29257.722423  29186.553999    139.796442
PC11   8407.675024  22197.375324  14762.839881   -202.819296
PC12  -8365.188208  13165.483312  23179.656463    680.945583
PC13  -6047.408383  41662.704490  -4065.355914   -114.080885
PC14   -116.092173  16331.879619 -22597.468854    454.635995
PC16  -2635.677907  27945.637383 -31263.014999     84.298748
PC19 -10778.707956 -12814.353170  22349.344549    896.028281
PC20   9175.152448 -17116.908429  20066.271630   -825.166058
PC21 -24872.357585  11339.339200  -5548.342890   -944.463310
PC22 -25282.475851   -955.070418  11751.834757   -958.017639
PC23  15460.534184   5252.679753  22626.547795   -958.410989
PC24  -7928.796228  26713.813035  -1806.632877   -943.959970
PC25   6548.087333  22207.443382  15585.430796   -778.133307
PC26 -15628.886459  16376.667761 -16357.225129    777.924861
PC27  15983.324057  -5765.981126 -22150.213440    678.807477
PC28  22814.051348  11230.145262 -11490.678571     33.765876
PC29 -17003.941916 -21239.815212  -6226.113920    516.356538
PC30   -218.133344 -19180.622411 -20281.708447    493.536497
PC32  24804.334661 -11540.946926   5544.367711   -966.639309
PC33  10803.580262  12789.712547 -22320.145670   -957.964693
PC34   1059.459491  19616.115445  19801.262213   -467.041852
PC35 -23260.725691 -11036.937587  10807.727585    143.787546
PC36  -5705.419813 -22654.329503 -15239.877677   -907.581960
PC37  16254.630429 -14909.080244  17087.783926   -960.343433
PC38 -14514.306304  38549.685638   9368.659860    212.055505
PC39  -8374.002223  23758.485232 -33770.836094     34.801911
PC40 -23199.954599  23360.785687  26221.826665    245.173680
PC41  25126.943499   1136.359384 -12030.248942   -938.963486
PC42 -10168.982643  17112.024037 -19506.184199   -931.694675
PC43  16448.092654  21470.968806   6806.618495   -941.183546
PC44 -16045.475150   6173.581784  21980.428868    567.717548
PC45 -15433.765961  -4908.631281 -22729.430788    682.862211
PC46   6985.744824 -26989.828857    442.864074   -173.269882
PE01  -4360.827057  22900.007665  18245.546695   -580.776209
PE02   4182.497794 -22827.710784 -18365.097877    280.832876
PE03  -6339.641031 -17846.923773  22743.393795   -528.666965
PE04  24403.191541  13042.186657 -10506.633494   -966.565962
PE05  15786.324457 -12251.651283  21838.759704   -208.224934
PE07 -28425.278030   -402.222543  -8232.442435   -639.897009
PE08      0.000000      0.000000      0.000000   5853.849458
PE09  28366.325337    183.429059   8478.859116   5357.230588
PE10  17783.940999  11799.312692 -20510.307177   -495.893192
PE11  16755.105362    246.470863 -24399.778766   4432.008047
PE12  15945.706710  20934.332732 -13524.357672   4755.057522
PE13 -16853.464418  -1016.984499  24323.280584    426.611897
PE14 -21680.472724   -736.233284   9755.312179  -1748.851059
PE15 -15931.855688 -21030.772586  13439.498187    762.770417
PE18  25821.930043  -5321.275178 -18881.700864  -1782.206209
PE21 -18771.504466  22764.815782   2432.649063   -717.682272
PE24  23102.580738  -8246.261337  16526.941873  -1395.418490
PE25  18901.233382 -22664.870413  -2192.490524   -563.925893
PE26  -7429.310617  20321.078256  20208.337633   -815.748736
PE27 -23265.769533   9522.192273 -15642.637677   -234.323786
PE30 -13223.898282 -10268.805092 -24423.762886   -281.219199
PE31  14024.416598   9236.347048  24377.145581   -492.315146
PE33   5602.621379  28564.124837   5348.297148   -459.348968
PE34  -5804.786172 -28567.773013  -5128.398673   -502.279015
PE36   7858.293027 -19490.116548 -20842.386836   -333.557077
PG01 -13706.526957   5473.009381  21772.756277    429.317934
PG02  14291.518659  16711.725740 -14141.411885   -651.014544
PG03 -22417.984634  11898.153548   7537.253958   -125.360752
PG04 -22250.374521   1772.009441 -14452.984073   -189.037740
PG05  18499.700394   1481.722075 -19217.121948    -71.737660
PG06   5398.987760  25908.641899  -1623.857762    204.284803
PG07  -6832.252988  20881.485419 -14182.520341    310.888976
PG08 -25745.161914  -5482.821135   4734.076472    -56.518097
PG09 -13147.894949  10771.848058 -20486.512871   -353.794615
PG10   5876.857857 -19748.421722  16735.177797   -322.879185
PG11  12418.020512  18284.669251 -14741.182112    -86.149631
PG12  23082.507719  -8256.184602   9783.670084   -172.329808
PG13  22955.555763  13458.748784  -1594.688497    263.133339
PG14  -7372.997543  19872.559484  15956.498942    -84.887676
PG15  26121.767393   2556.605877   4661.461689    -83.169345
PG16 -15779.354962  -6418.852438 -20760.449134   -470.542403
PG17   2351.215635  16508.029312  21098.110428    576.232054
PG18   6843.195260 -21147.669124 -14464.508389    238.318708
PG19  10806.917610  17709.034339  16430.381063    120.073062
PG20  11741.825697  10317.558722 -21474.455946    516.664417
PG21 -16502.320848  -5411.584815  20929.080221    158.175186
PG22 -13522.135620 -17792.906997  14892.179200    214.880069
PG23  15457.962614 -20252.497258   7323.179433      0.537557
PG24  15774.124302  -1129.351859  21071.476735    274.054637
PG25  19612.087639 -17649.724733  -1332.959706    286.747903
PG26  -5484.794019 -15648.399325 -20774.936673    183.959728
PG27 -22750.946798 -12821.569854  -6084.649575    122.720576
PG28    382.790831  17100.716925  20898.124553    398.604538
PG29  15915.586777  -7394.082197 -20000.995006   -481.268173
PG30  -1097.079940  25540.935246  -6643.705074   -513.898417
PG31  -6791.773636 -25054.635175  -4391.571211   -165.129707
PG32  -7713.385992 -17035.064994  19063.576180    -69.261435
PJ01 -34330.130200  14734.841593 -14873.357713    242.781737
PJ02 -28480.941591  30836.457932    558.128922     -1.410167
PJ03 -25505.371270  22971.026172  29577.636678     -0.571813
PR01 -13586.314360  -8003.085331  20049.813893      7.089789
PR02 -25243.969920    559.305450   3894.940389    509.916930
PR03 -20247.592577   8312.883357 -13103.211332     51.634592
PR04  -4045.385585  11019.433951 -22618.920373    128.075258
PR05  14328.878991   7818.054590 -19579.840889     87.879917
PR07  19641.402355  -8574.453586  13834.594763     31.722483
PR08   3824.838440 -11176.575303  22661.945111    -63.603469
PR09  13161.826468  -3694.989644  21562.419462     39.947693
PR11   6751.073819 -23697.083503  -6611.358454     45.424056
PR12  -4530.739167 -14217.466150 -20661.918632     17.225495
PR13 -12588.984878   2507.192464 -22065.064115    -18.386121
PR14 -13651.747943  19071.169543 -10012.002119     74.452670
PR15  -6580.629444  23526.621483   7359.951493     98.129671
PR17  -7713.034541   7314.812444  23200.890088    502.379678
PR18   4544.475437  19101.526686  16267.877026    107.545217
PR19  13452.528896  21598.279881   1782.861521   -178.505369
PR20  15901.524992  10275.650672 -17056.510831    -65.087862
PR21   6736.359173  -8457.396657 -23097.698786   -278.729388
PR22  -5201.452443 -19602.823683 -15547.411639   -165.251187
PR24 -16287.037677  -9119.153048  17401.811884     80.615323
EOF
